0 CZ-4 DEB
1 20905U 90081BR  13282.51464451  .00014926  00000-0  28118-2 0  7532
2 20905 098.3188 012.3414 0006553 093.3555 030.3290 14.64625893202996
0 CZ-4 DEB
1 20905U 90081BR  13283.44766131  .00023069  00000-0  43424-2 0  7552
2 20905 098.3188 013.2865 0006839 092.3481 267.8998 14.64631705203138
0 CZ-4 DEB
1 20905U 90081BR  13283.47208427  .00014199  00000-0  26746-2 0  7545
2 20905 098.3187 013.3088 0006425 090.3367 038.6185 14.64643340203137
0 CZ-4 DEB
1 20905U 90081BR  13286.19132861  .00010849  00000-0  20445-2 0  7565
2 20905 098.3195 016.0574 0006180 082.3717 336.1104 14.64693933203538
0 CZ-4 DEB
1 20905U 90081BR  13287.50259985  .00011571  00000-0  21788-2 0  7573
2 20905 098.3200 017.3828 0006060 078.2571 050.3829 14.64716122203726
0 CZ-4 DEB
1 20905U 90081BR  13288.51541791  .00017633  00000-0  33097-2 0  7586
2 20905 098.3204 018.4071 0005984 075.0457 351.0624 14.64749941203879
0 CZ-4 DEB
1 20905U 90081BR  13289.82363539  .00016573  00000-0  31094-2 0  7591
2 20905 098.3205 019.7298 0005840 070.8286 049.6433 14.64784671204068
0 CZ-4 DEB
1 20905U 90081BR  13290.97294122  .00014492  00000-0  27193-2 0  7605
2 20905 098.3203 020.8920 0005732 066.7603 350.7355 14.64814925204232
0 CZ-4 DEB
1 20905U 90081BR  13292.20234292  .00012594  00000-0  23635-2 0  7614
2 20905 098.3201 022.1351 0005655 062.6707 354.0933 14.64844989204419
0 CZ-4 DEB
1 20905U 90081BR  13293.51276913  .00014846  00000-0  27818-2 0  7625
2 20905 098.3197 023.4601 0005521 058.1221 065.0811 14.64873507204601
0 CZ-4 DEB
1 20905U 90081BR  13294.53504156  .00016710  00000-0  31275-2 0  7636
2 20905 098.3194 024.4938 0005456 054.5540 056.5067 14.64895254204750
0 CZ-4 DEB
1 20905U 90081BR  13295.95955968  .00016345  00000-0  30569-2 0  7644
2 20905 098.3189 025.9343 0005345 049.3168 009.7726 14.64932960204966
